CCSDS_OMM_VERS = 2.0
CREATION_DATE  = 
ORIGINATOR     = 

OBJECT_NAME    = ELECTRON R/B
OBJECT_ID      = 2025-252B
CENTER_NAME    = EARTH
REF_FRAME      = TEME
TIME_SYSTEM    = UTC
MEAN_ELEMENT_THEORY = SGP/SGP4

EPOCH          = 2025-11-19T03:24:07.380576
MEAN_MOTION    = 15.71555361
ECCENTRICITY   = .01957134
INCLINATION    = 41.9952
RA_OF_ASC_NODE = 196.9671
ARG_OF_PERICENTER = 329.2220
MEAN_ANOMALY   = 29.7275

EPHEMERIS_TYPE = 0
CLASSIFICATION_TYPE = U
NORAD_CAT_ID   = 66317
ELEMENT_SET_NO = 999
REV_AT_EPOCH   = 208
BSTAR          = .13908848E-2
MEAN_MOTION_DOT = .627016E-2
MEAN_MOTION_DDOT = .13006008E-3

CCSDS_OMM_VERS = 2.0
CREATION_DATE  = 
ORIGINATOR     = 

OBJECT_NAME    = ELECTRON KICK STAGE R/B
OBJECT_ID      = 2025-252C
CENTER_NAME    = EARTH
REF_FRAME      = TEME
TIME_SYSTEM    = UTC
MEAN_ELEMENT_THEORY = SGP/SGP4

EPOCH          = 2025-11-18T17:35:41.370144
MEAN_MOTION    = 15.77866706
ECCENTRICITY   = .01790304
INCLINATION    = 41.9855
RA_OF_ASC_NODE = 199.1055
ARG_OF_PERICENTER = 117.0282
MEAN_ANOMALY   = 244.8970

EPHEMERIS_TYPE = 0
CLASSIFICATION_TYPE = U
NORAD_CAT_ID   = 66318
ELEMENT_SET_NO = 999
REV_AT_EPOCH   = 202
BSTAR          = .17069346E-2
MEAN_MOTION_DOT = .952657E-2
MEAN_MOTION_DDOT = .7619906E-5

CCSDS_OMM_VERS = 2.0
CREATION_DATE  = 
ORIGINATOR     = 

OBJECT_NAME    = STARLINK-35442
OBJECT_ID      = 2025-253A
CENTER_NAME    = EARTH
REF_FRAME      = TEME
TIME_SYSTEM    = UTC
MEAN_ELEMENT_THEORY = SGP/SGP4

EPOCH          = 2025-11-19T06:00:02.000160
MEAN_MOTION    = 15.77115963
ECCENTRICITY   = .00017568
INCLINATION    = 42.9976
RA_OF_ASC_NODE = 123.2255
ARG_OF_PERICENTER = 268.7000
MEAN_ANOMALY   = 91.0462

EPHEMERIS_TYPE = 0
CLASSIFICATION_TYPE = U
NORAD_CAT_ID   = 66319
ELEMENT_SET_NO = 999
REV_AT_EPOCH   = 325
BSTAR          = -.10298873E-1
MEAN_MOTION_DOT = -.1523046E-1
MEAN_MOTION_DDOT = 0

CCSDS_OMM_VERS = 2.0
CREATION_DATE  = 
ORIGINATOR     = 

OBJECT_NAME    = STARLINK-34616
OBJECT_ID      = 2025-253B
CENTER_NAME    = EARTH
REF_FRAME      = TEME
TIME_SYSTEM    = UTC
MEAN_ELEMENT_THEORY = SGP/SGP4

EPOCH          = 2025-11-19T06:00:02.000160
MEAN_MOTION    = 15.77138123
ECCENTRICITY   = .00020138
INCLINATION    = 42.9971
RA_OF_ASC_NODE = 123.2197
ARG_OF_PERICENTER = 268.2599
MEAN_ANOMALY   = 93.4180

EPHEMERIS_TYPE = 0
CLASSIFICATION_TYPE = U
NORAD_CAT_ID   = 66320
ELEMENT_SET_NO = 999
REV_AT_EPOCH   = 335
BSTAR          = -.1083715E-1
MEAN_MOTION_DOT = -.1593888E-1
MEAN_MOTION_DDOT = 0

CCSDS_OMM_VERS = 2.0
CREATION_DATE  = 
ORIGINATOR     = 

OBJECT_NAME    = STARLINK-34615
OBJECT_ID      = 2025-253C
CENTER_NAME    = EARTH
REF_FRAME      = TEME
TIME_SYSTEM    = UTC
MEAN_ELEMENT_THEORY = SGP/SGP4

EPOCH          = 2025-11-19T06:00:02.000160
MEAN_MOTION    = 15.77043239
ECCENTRICITY   = .00018162
INCLINATION    = 42.9976
RA_OF_ASC_NODE = 123.2151
ARG_OF_PERICENTER = 267.0301
MEAN_ANOMALY   = 96.7634

EPHEMERIS_TYPE = 0
CLASSIFICATION_TYPE = U
NORAD_CAT_ID   = 66321
ELEMENT_SET_NO = 999
REV_AT_EPOCH   = 320
BSTAR          = -.1085176E-1
MEAN_MOTION_DOT = -.1589668E-1
MEAN_MOTION_DDOT = 0

CCSDS_OMM_VERS = 2.0
CREATION_DATE  = 
ORIGINATOR     = 

OBJECT_NAME    = STARLINK-35292
OBJECT_ID      = 2025-253D
CENTER_NAME    = EARTH
REF_FRAME      = TEME
TIME_SYSTEM    = UTC
MEAN_ELEMENT_THEORY = SGP/SGP4

EPOCH          = 2025-11-19T06:00:02.000160
MEAN_MOTION    = 15.76393128
ECCENTRICITY   = .00017001
INCLINATION    = 42.9979
RA_OF_ASC_NODE = 123.1927
ARG_OF_PERICENTER = 269.7109
MEAN_ANOMALY   = 102.8264

EPHEMERIS_TYPE = 0
CLASSIFICATION_TYPE = U
NORAD_CAT_ID   = 66322
ELEMENT_SET_NO = 999
REV_AT_EPOCH   = 315
BSTAR          = -.10774872E-1
MEAN_MOTION_DOT = -.1540023E-1
MEAN_MOTION_DDOT = 0

CCSDS_OMM_VERS = 2.0
CREATION_DATE  = 
ORIGINATOR     = 

OBJECT_NAME    = STARLINK-35309
OBJECT_ID      = 2025-253E
CENTER_NAME    = EARTH
REF_FRAME      = TEME
TIME_SYSTEM    = UTC
MEAN_ELEMENT_THEORY = SGP/SGP4

EPOCH          = 2025-11-19T06:00:02.000160
MEAN_MOTION    = 15.76117396
ECCENTRICITY   = .00018705
INCLINATION    = 42.9979
RA_OF_ASC_NODE = 123.1787
ARG_OF_PERICENTER = 268.4851
MEAN_ANOMALY   = 110.0693

EPHEMERIS_TYPE = 0
CLASSIFICATION_TYPE = U
NORAD_CAT_ID   = 66323
ELEMENT_SET_NO = 999
REV_AT_EPOCH   = 315
BSTAR          = -.93523149E-2
MEAN_MOTION_DOT = -.1344269E-1
MEAN_MOTION_DDOT = 0

CCSDS_OMM_VERS = 2.0
CREATION_DATE  = 
ORIGINATOR     = 

OBJECT_NAME    = STARLINK-35506
OBJECT_ID      = 2025-253F
CENTER_NAME    = EARTH
REF_FRAME      = TEME
TIME_SYSTEM    = UTC
MEAN_ELEMENT_THEORY = SGP/SGP4

EPOCH          = 2025-11-19T06:00:02.000160
MEAN_MOTION    = 15.76525204
ECCENTRICITY   = .00019333
INCLINATION    = 42.9977
RA_OF_ASC_NODE = 123.1978
ARG_OF_PERICENTER = 266.1561
MEAN_ANOMALY   = 104.3175

EPHEMERIS_TYPE = 0
CLASSIFICATION_TYPE = U
NORAD_CAT_ID   = 66324
ELEMENT_SET_NO = 999
REV_AT_EPOCH   = 325
BSTAR          = -.11307413E-1
MEAN_MOTION_DOT = -.1646972E-1
MEAN_MOTION_DDOT = 0

CCSDS_OMM_VERS = 2.0
CREATION_DATE  = 
ORIGINATOR     = 

OBJECT_NAME    = STARLINK-35504
OBJECT_ID      = 2025-253G
CENTER_NAME    = EARTH
REF_FRAME      = TEME
TIME_SYSTEM    = UTC
MEAN_ELEMENT_THEORY = SGP/SGP4

EPOCH          = 2025-11-19T06:00:02.000160
MEAN_MOTION    = 15.76266353
ECCENTRICITY   = .00017487
INCLINATION    = 42.9979
RA_OF_ASC_NODE = 123.1883
ARG_OF_PERICENTER = 267.5087
MEAN_ANOMALY   = 107.0641

EPHEMERIS_TYPE = 0
CLASSIFICATION_TYPE = U
NORAD_CAT_ID   = 66325
ELEMENT_SET_NO = 999
REV_AT_EPOCH   = 315
BSTAR          = -.99590458E-2
MEAN_MOTION_DOT = -.1429857E-1
MEAN_MOTION_DDOT = 0

CCSDS_OMM_VERS = 2.0
CREATION_DATE  = 
ORIGINATOR     = 

OBJECT_NAME    = STARLINK-35479
OBJECT_ID      = 2025-253H
CENTER_NAME    = EARTH
REF_FRAME      = TEME
TIME_SYSTEM    = UTC
MEAN_ELEMENT_THEORY = SGP/SGP4

EPOCH          = 2025-11-19T06:00:02.000160
MEAN_MOTION    = 15.76075074
ECCENTRICITY   = .00015941
INCLINATION    = 42.9976
RA_OF_ASC_NODE = 123.1725
ARG_OF_PERICENTER = 268.4447
MEAN_ANOMALY   = 112.0658

EPHEMERIS_TYPE = 0
CLASSIFICATION_TYPE = U
NORAD_CAT_ID   = 66326
ELEMENT_SET_NO = 999
REV_AT_EPOCH   = 325
BSTAR          = -.91122527E-2
MEAN_MOTION_DOT = -.131101E-1
MEAN_MOTION_DDOT = 0

CCSDS_OMM_VERS = 2.0
CREATION_DATE  = 
ORIGINATOR     = 

OBJECT_NAME    = STARLINK-35507
OBJECT_ID      = 2025-253J
CENTER_NAME    = EARTH
REF_FRAME      = TEME
TIME_SYSTEM    = UTC
MEAN_ELEMENT_THEORY = SGP/SGP4

EPOCH          = 2025-11-19T06:00:02.000160
MEAN_MOTION    = 15.76860766
ECCENTRICITY   = .00021905
INCLINATION    = 42.9978
RA_OF_ASC_NODE = 123.2047
ARG_OF_PERICENTER = 271.7379
MEAN_ANOMALY   = 96.3005

EPHEMERIS_TYPE = 0
CLASSIFICATION_TYPE = U
NORAD_CAT_ID   = 66327
ELEMENT_SET_NO = 999
REV_AT_EPOCH   = 325
BSTAR          = -.11253085E-1
MEAN_MOTION_DOT = -.1662199E-1
MEAN_MOTION_DDOT = 0

CCSDS_OMM_VERS = 2.0
CREATION_DATE  = 
ORIGINATOR     = 

OBJECT_NAME    = STARLINK-35460
OBJECT_ID      = 2025-253K
CENTER_NAME    = EARTH
REF_FRAME      = TEME
TIME_SYSTEM    = UTC
MEAN_ELEMENT_THEORY = SGP/SGP4

EPOCH          = 2025-11-19T06:00:02.000160
MEAN_MOTION    = 15.75854401
ECCENTRICITY   = .00017608
INCLINATION    = 42.9976
RA_OF_ASC_NODE = 123.1568
ARG_OF_PERICENTER = 261.2771
MEAN_ANOMALY   = 125.1452

EPHEMERIS_TYPE = 0
CLASSIFICATION_TYPE = U
NORAD_CAT_ID   = 66328
ELEMENT_SET_NO = 999
REV_AT_EPOCH   = 325
BSTAR          = -.74992261E-2
MEAN_MOTION_DOT = -.1073089E-1
MEAN_MOTION_DDOT = 0

