ELECTRON R/B            
1 66317U 25252B   25323.14175209  .00627016  13006-3  13909-2 0  9992
2 66317  41.9952 196.9671 0195713 329.2220  29.7275 15.71555361  2081
ELECTRON KICK STAGE R/B 
1 66318U 25252C   25322.73311771  .00952657  76199-5  17069-2 0  9990
2 66318  41.9855 199.1055 0179030 117.0282 244.8970 15.77866706  2020
STARLINK-35442          
1 66319U 25253A   25323.25002315 -.01523046  00000+0 -10299-1 0  9999
2 66319  42.9976 123.2255 0001756 268.7000  91.0462 15.77115963  3253
STARLINK-34616          
1 66320U 25253B   25323.25002315 -.01593888  00000+0 -10837-1 0  9990
2 66320  42.9971 123.2197 0002013 268.2599  93.4180 15.77138123  3357
STARLINK-34615          
1 66321U 25253C   25323.25002315 -.01589668  00000+0 -10852-1 0  9999
2 66321  42.9976 123.2151 0001816 267.0301  96.7634 15.77043239  3208
STARLINK-35292          
1 66322U 25253D   25323.25002315 -.01540023  00000+0 -10775-1 0  9996
2 66322  42.9979 123.1927 0001700 269.7109 102.8264 15.76393128  3155
STARLINK-35309          
1 66323U 25253E   25323.25002315 -.01344269  00000+0 -93523-2 0  9994
2 66323  42.9979 123.1787 0001870 268.4851 110.0693 15.76117396  3156
STARLINK-35506          
1 66324U 25253F   25323.25002315 -.01646972  00000+0 -11307-1 0  9990
2 66324  42.9977 123.1978 0001933 266.1561 104.3175 15.76525204  3253
STARLINK-35504          
1 66325U 25253G   25323.25002315 -.01429857  00000+0 -99590-2 0  9993
2 66325  42.9979 123.1883 0001748 267.5087 107.0641 15.76266353  3157
STARLINK-35479          
1 66326U 25253H   25323.25002315 -.01311010  00000+0 -91123-2 0  9999
2 66326  42.9976 123.1725 0001594 268.4447 112.0658 15.76075074  3252
STARLINK-35507          
1 66327U 25253J   25323.25002315 -.01662199  00000+0 -11253-1 0  9992
2 66327  42.9978 123.2047 0002190 271.7379  96.3005 15.76860766  3257
STARLINK-35460          
1 66328U 25253K   25323.25002315 -.01073089  00000+0 -74992-2 0  9997
2 66328  42.9976 123.1568 0001760 261.2771 125.1452 15.75854401  3250
